[Satellite]
VERSION=1.1
NAME=NOAA 15
NICKNAME=NOAA 15
TLE1=1 25338U 98030A   25178.83173157  .00000161  00000-0  84026-4 0  9991
TLE2=2 25338  98.5340 203.5229 0009216 310.5568  49.4810 14.26988686411001
STATUS=0
